 1984 1022 2102 23.2 LE 69.330 27.440 11.0 NAO 34 5.2 3.8LNAO 4.0bPDE 3.2sISC1
 NORTHERN FINLAND                                                             3
 NRSA SZ IPN 1 D 2244 13.44 0345 1234.6 1.33 245.2 08.6 841022 120.2 3 5 12345 
 NRSA SZ ILG 1 D 2244 13.44 0345 1234.6 1.33 265.0 03.6 841022 120.2 3 5 12345 
 1985 510 21 5 16.1 LE 60.240   6.170 30.0F BER  6 2.3 3.8LNAO 4.0bPDE 3.2sISC 
                1.5     0.5     0.9    5.0             0.4                    5 
 8505210425.WNN                                                               6
 NORTHERN HORDALAND       F 3.5 61.22 0.5   5.33 0.8  23456 2   456 2 99 11BER1
 STAT SP IPHASW D HRMM SECON CODA AMPLIT PERI AZIMU VELO SNR                  7
 BER  SZ IPG  2 U 2105 25.41  200
 HYA  SZ ISG  1   2105 33.1
 ODD  SZ IP   3   2105 20.1   250
 ODD  SZ EPG      2105 22.9
 ODD  SZ  LG      2105 55.8 
